{
  "links" : {
    "next" : "https://api.nasa.gov/neo/rest/v1/feed?start_date=2006-09-16&end_date=2006-09-16&detailed=true&api_key=t0TVs3DtDT2H8Oy2Zy8m2eVrNsAVKAexjcZXUckd",
    "prev" : "https://api.nasa.gov/neo/rest/v1/feed?start_date=2006-09-14&end_date=2006-09-14&detailed=true&api_key=t0TVs3DtDT2H8Oy2Zy8m2eVrNsAVKAexjcZXUckd",
    "self" : "https://api.nasa.gov/neo/rest/v1/feed?start_date=2006-09-15&end_date=2006-09-15&detailed=true&api_key=t0TVs3DtDT2H8Oy2Zy8m2eVrNsAVKAexjcZXUckd"
  },
  "element_count" : 8,
  "near_earth_objects" : {
    "2006-09-15" : [ {
      "links" : {
        "self" : "https://api.nasa.gov/neo/rest/v1/neo/3263540?api_key=t0TVs3DtDT2H8Oy2Zy8m2eVrNsAVKAexjcZXUckd"
      },
      "neo_reference_id" : "3263540",
      "name" : "(2004 XO29)",
      "nasa_jpl_url" : "http://ssd.jpl.nasa.gov/sbdb.cgi?sstr=3263540",
      "absolute_magnitude_h" : 21.1,
      "estimated_diameter" : {
        "kilometers" : {
          "estimated_diameter_min" : 0.160160338,
          "estimated_diameter_max" : 0.358129403
        },
        "meters" : {
          "estimated_diameter_min" : 160.1603379786,
          "estimated_diameter_max" : 358.1294030194
        },
        "miles" : {
          "estimated_diameter_min" : 0.0995189894,
          "estimated_diameter_max" : 0.2225312253
        },
        "feet" : {
          "estimated_diameter_min" : 525.4604432536,
          "estimated_diameter_max" : 1174.9652706022
        }
      },
      "is_potentially_hazardous_asteroid" : false,
      "close_approach_data" : [ {
        "close_approach_date" : "2006-09-15",
        "epoch_date_close_approach" : 1158303600000,
        "relative_velocity" : {
          "kilometers_per_second" : "30.7042070219",
          "kilometers_per_hour" : "110535.1452789714",
          "miles_per_hour" : "68682.2406873698"
        },
        "miss_distance" : {
          "astronomical" : "0.4438962402",
          "lunar" : "172.6756286621",
          "kilometers" : "66405932",
          "miles" : "41262732"
        },
        "orbiting_body" : "Earth"
      } ],
      "orbital_data" : {
        "orbit_id" : "17",
        "orbit_determination_date" : "2017-04-06 09:11:47",
        "orbit_uncertainty" : "1",
        "minimum_orbit_intersection" : ".160655",
        "jupiter_tisserand_invariant" : "4.888",
        "epoch_osculation" : "2458000.5",
        "eccentricity" : ".6722530989325256",
        "semi_major_axis" : "1.233549096172312",
        "inclination" : "21.65104890869763",
        "ascending_node_longitude" : "80.73912030241533",
        "orbital_period" : "500.4181879857862",
        "perihelion_distance" : ".4042918935850591",
        "perihelion_argument" : "145.0692905085957",
        "aphelion_distance" : "2.062806298759564",
        "perihelion_time" : "2457954.391110750548",
        "mean_anomaly" : "33.17065711902973",
        "mean_motion" : ".7193983125374039",
        "equinox" : "J2000"
      }
    }, {
      "links" : {
        "self" : "https://api.nasa.gov/neo/rest/v1/neo/3368247?api_key=t0TVs3DtDT2H8Oy2Zy8m2eVrNsAVKAexjcZXUckd"
      },
      "neo_reference_id" : "3368247",
      "name" : "(2007 CX50)",
      "nasa_jpl_url" : "http://ssd.jpl.nasa.gov/sbdb.cgi?sstr=3368247",
      "absolute_magnitude_h" : 24.7,
      "estimated_diameter" : {
        "kilometers" : {
          "estimated_diameter_min" : 0.0305179233,
          "estimated_diameter_max" : 0.0682401509
        },
        "meters" : {
          "estimated_diameter_min" : 30.5179232594,
          "estimated_diameter_max" : 68.2401509401
        },
        "miles" : {
          "estimated_diameter_min" : 0.0189629525,
          "estimated_diameter_max" : 0.0424024508
        },
        "feet" : {
          "estimated_diameter_min" : 100.1244233463,
          "estimated_diameter_max" : 223.8850168104
        }
      },
      "is_potentially_hazardous_asteroid" : false,
      "close_approach_data" : [ {
        "close_approach_date" : "2006-09-15",
        "epoch_date_close_approach" : 1158303600000,
        "relative_velocity" : {
          "kilometers_per_second" : "4.8759819998",
          "kilometers_per_hour" : "17553.5351994488",
          "miles_per_hour" : "10907.0841354575"
        },
        "miss_distance" : {
          "astronomical" : "0.2363199597",
          "lunar" : "91.9284667969",
          "kilometers" : "35352964",
          "miles" : "21967312"
        },
        "orbiting_body" : "Earth"
      } ],
      "orbital_data" : {
        "orbit_id" : "12",
        "orbit_determination_date" : "2017-04-06 09:07:00",
        "orbit_uncertainty" : "7",
        "minimum_orbit_intersection" : ".0166445",
        "jupiter_tisserand_invariant" : "5.242",
        "epoch_osculation" : "2458000.5",
        "eccentricity" : ".2258715968446506",
        "semi_major_axis" : "1.206747852833754",
        "inclination" : "7.501660196182359",
        "ascending_node_longitude" : "322.411200791438",
        "orbital_period" : "484.1982650791616",
        "perihelion_distance" : ".9341777883253406",
        "perihelion_argument" : "126.1697671008093",
        "aphelion_distance" : "1.479317917342167",
        "perihelion_time" : "2457972.380778118663",
        "mean_anomaly" : "20.90655957973403",
        "mean_motion" : ".7434970877913897",
        "equinox" : "J2000"
      }
    }, {
      "links" : {
        "self" : "https://api.nasa.gov/neo/rest/v1/neo/3388354?api_key=t0TVs3DtDT2H8Oy2Zy8m2eVrNsAVKAexjcZXUckd"
      },
      "neo_reference_id" : "3388354",
      "name" : "(2007 TD66)",
      "nasa_jpl_url" : "http://ssd.jpl.nasa.gov/sbdb.cgi?sstr=3388354",
      "absolute_magnitude_h" : 21.8,
      "estimated_diameter" : {
        "kilometers" : {
          "estimated_diameter_min" : 0.1160259082,
          "estimated_diameter_max" : 0.2594418179
        },
        "meters" : {
          "estimated_diameter_min" : 116.0259082094,
          "estimated_diameter_max" : 259.4418179074
        },
        "miles" : {
          "estimated_diameter_min" : 0.0720951346,
          "estimated_diameter_max" : 0.1612096218
        },
        "feet" : {
          "estimated_diameter_min" : 380.6624406898,
          "estimated_diameter_max" : 851.1870938635
        }
      },
      "is_potentially_hazardous_asteroid" : false,
      "close_approach_data" : [ {
        "close_approach_date" : "2006-09-15",
        "epoch_date_close_approach" : 1158303600000,
        "relative_velocity" : {
          "kilometers_per_second" : "9.7057630263",
          "kilometers_per_hour" : "34940.7468946785",
          "miles_per_hour" : "21710.8213135295"
        },
        "miss_distance" : {
          "astronomical" : "0.2310316429",
          "lunar" : "89.871307373",
          "kilometers" : "34561840",
          "miles" : "21475732"
        },
        "orbiting_body" : "Earth"
      } ],
      "orbital_data" : {
        "orbit_id" : "17",
        "orbit_determination_date" : "2017-04-06 09:05:42",
        "orbit_uncertainty" : "2",
        "minimum_orbit_intersection" : ".218889",
        "jupiter_tisserand_invariant" : "6.174",
        "epoch_osculation" : "2458000.5",
        "eccentricity" : ".3104755296624382",
        "semi_major_axis" : ".9667191847784796",
        "inclination" : "14.8794515973558",
        "ascending_node_longitude" : "205.1788195743418",
        "orbital_period" : "347.1753906935307",
        "perihelion_distance" : ".6665765338495407",
        "perihelion_argument" : "1.333842517057521",
        "aphelion_distance" : "1.266861835707419",
        "perihelion_time" : "2458041.022321760704",
        "mean_anomaly" : "317.9807894657744",
        "mean_motion" : "1.036939857058562",
        "equinox" : "J2000"
      }
    } ]
  }
}